{"type": "FeatureCollection", "features": [ {"type": "Feature", "properties": {"norad_id": 37867, "name": "COSMOS 2476 (744)", "group": "gnss", "lat": -21.176137663263226, "lon": 68.61702594514925, "alt_km": 19145.64918541946, "timestamp": "2025-12-20T03:42:47.635463+00:00", "meta": {"OBJECT_NAME": "COSMOS 2476 (744)", "OBJECT_ID": "2011-064A", "EPOCH": "2025-12-19T06:05:26.552256", "MEAN_MOTION": 2.13103916, "ECCENTRICITY": 0.0024321, "INCLINATION": 65.1662, "RA_OF_ASC_NODE": 78.9509, "ARG_OF_PERICENTER": 234.6548, "MEAN_ANOMALY": 130.4776, "EPHEMERIS_TYPE": 0, "CLASSIFICATION_TYPE": "U", "NORAD_CAT_ID": 37867, "ELEMENT_SET_NO": 999, "REV_AT_EPOCH": 10993, "BSTAR": 0, "MEAN_MOTION_DOT": -3e-07, "MEAN_MOTION_DDOT": 0}, "tle": {"line1": "1 37867U 11064A   25353.25377954 -.00000030  00000+0  00000+0 0  9995", "line2": "2 37867  65.1662  78.9509 0024321 234.6548 130.4776  2.13103916109937"}}, "geometry": {"type": "Point", "coordinates": [68.61702594514925, -21.176137663263226]}}, {"type": "Feature", "properties": {"norad_id": 37868, "name": "COSMOS 2477 (745)", "group": "gnss", "lat": 20.774770737806723, "lon": -111.08628940045367, "alt_km": 19116.090589275344, "timestamp": "2025-12-20T03:42:47.635475+00:00", "meta": {"OBJECT_NAME": "COSMOS 2477 (745)", "OBJECT_ID": "2011-064B", "EPOCH": "2025-12-19T13:37:36.499584", "MEAN_MOTION": 2.13102956, "ECCENTRICITY": 0.0021226, "INCLINATION": 65.1727, "RA_OF_ASC_NODE": 79.0178, "ARG_OF_PERICENTER": 234.8822, "MEAN_ANOMALY": 192.052, "EPHEMERIS_TYPE": 0, "CLASSIFICATION_TYPE": "U", "NORAD_CAT_ID": 37868, "ELEMENT_SET_NO": 999, "REV_AT_EPOCH": 10993, "BSTAR": 0, "MEAN_MOTION_DOT": -2.7e-07, "MEAN_MOTION_DDOT": 0}, "tle": {"line1": "1 37868U 11064B   25353.56778356 -.00000027  00000+0  00000+0 0  9997", "line2": "2 37868  65.1727  79.0178 0021226 234.8822 192.0520  2.13102956109936"}}, "geometry": {"type": "Point", "coordinates": [-111.08628940045367, 20.774770737806723]}}, {"type": "Feature", "properties": {"norad_id": 37869, "name": "COSMOS 2475 (743)", "group": "gnss", "lat": 56.734817958854535, "lon": -145.7346448204728, "alt_km": 19171.944327608668, "timestamp": "2025-12-20T03:42:47.635487+00:00", "meta": {"OBJECT_NAME": "COSMOS 2475 (743)", "OBJECT_ID": "2011-064C", "EPOCH": "2025-12-19T14:11:24.597888", "MEAN_MOTION": 2.13101629, "ECCENTRICITY": 0.0026449, "INCLINATION": 65.1796, "RA_OF_ASC_NODE": 79.0372, "ARG_OF_PERICENTER": 248.8375, "MEAN_ANOMALY": 152.0175, "EPHEMERIS_TYPE": 0, "CLASSIFICATION_TYPE": "U", "NORAD_CAT_ID": 37869, "ELEMENT_SET_NO": 999, "REV_AT_EPOCH": 10994, "BSTAR": 0, "MEAN_MOTION_DOT": -2.6e-07, "MEAN_MOTION_DDOT": 0}, "tle": {"line1": "1 37869U 11064C   25353.59125692 -.00000026  00000+0  00000+0 0  9999", "line2": "2 37869  65.1796  79.0372 0026449 248.8375 152.0175  2.13101629109948"}}, "geometry": {"type": "Point", "coordinates": [-145.7346448204728, 56.734817958854535]}}, {"type": "Feature", "properties": {"norad_id": 37948, "name": "BEIDOU-2 IGSO-5 (C10)", "group": "gnss", "lat": -24.910734477671703, "lon": -110.91623698624436, "alt_km": 35886.575125375115, "timestamp": "2025-12-20T03:42:47.635499+00:00", "meta": {"OBJECT_NAME": "BEIDOU-2 IGSO-5 (C10)", "OBJECT_ID": "2011-073A", "EPOCH": "2025-12-19T18:17:17.237184", "MEAN_MOTION": 1.00289893, "ECCENTRICITY": 0.010988, "INCLINATION": 48.0071, "RA_OF_ASC_NODE": 273.7726, "ARG_OF_PERICENTER": 222.325, "MEAN_ANOMALY": 320.2143, "EPHEMERIS_TYPE": 0, "CLASSIFICATION_TYPE": "U", "NORAD_CAT_ID": 37948, "ELEMENT_SET_NO": 999, "REV_AT_EPOCH": 5133, "BSTAR": 0, "MEAN_MOTION_DOT": -1.59e-06, "MEAN_MOTION_DDOT": 0}, "tle": {"line1": "1 37948U 11073A   25353.76200506 -.00000159  00000+0  00000+0 0  9991", "line2": "2 37948  48.0071 273.7726 0109880 222.3250 320.2143  1.00289893 51336"}}, "geometry": {"type": "Point", "coordinates": [-110.91623698624436, -24.910734477671703]}}, {"type": "Feature", "properties": {"norad_id": 37951, "name": "LUCH 5A (SDCM/PRN 140)", "group": "gnss", "lat": -6.8399239097350595, "lon": -48.477422660125406, "alt_km": 35772.69812426992, "timestamp": "2025-12-20T03:42:47.635511+00:00", "meta": {"OBJECT_NAME": "LUCH 5A (SDCM/PRN 140)", "OBJECT_ID": "2011-074B", "EPOCH": "2025-12-19T12:20:45.341088", "MEAN_MOTION": 1.0026908, "ECCENTRICITY": 0.0005087, "INCLINATION": 8.2961, "RA_OF_ASC_NODE": 76.4843, "ARG_OF_PERICENTER": 189.4736, "MEAN_ANOMALY": 174.6688, "EPHEMERIS_TYPE": 0, "CLASSIFICATION_TYPE": "U", "NORAD_CAT_ID": 37951, "ELEMENT_SET_NO": 999, "REV_AT_EPOCH": 5125, "BSTAR": 0, "MEAN_MOTION_DOT": -3.2e-07, "MEAN_MOTION_DDOT": 0}, "tle": {"line1": "1 37951U 11074B   25353.51441367 -.00000032  00000+0  00000+0 0  9991", "line2": "2 37951   8.2961  76.4843 0005087 189.4736 174.6688  1.00269080 51252"}}, "geometry": {"type": "Point", "coordinates": [-48.477422660125406, -6.8399239097350595]}}, {"type": "Feature", "properties": {"norad_id": 38091, "name": "BEIDOU-2 G5 (C05)", "group": "gnss", "lat": 2.289898193271013, "lon": -156.64238902888914, "alt_km": 35794.61308778697, "timestamp": "2025-12-20T03:42:47.635523+00:00", "meta": {"OBJECT_NAME": "BEIDOU-2 G5 (C05)", "OBJECT_ID": "2012-008A", "EPOCH": "2025-12-19T16:03:31.750272", "MEAN_MOTION": 1.00268606, "ECCENTRICITY": 0.0012969, "INCLINATION": 3.1258, "RA_OF_ASC_NODE": 70.6861, "ARG_OF_PERICENTER": 231.3522, "MEAN_ANOMALY": 86.1393, "EPHEMERIS_TYPE": 0, "CLASSIFICATION_TYPE": "U", "NORAD_CAT_ID": 38091, "ELEMENT_SET_NO": 999, "REV_AT_EPOCH": 5056, "BSTAR": 0, "MEAN_MOTION_DOT": 7.9e-07, "MEAN_MOTION_DDOT": 0}, "tle": {"line1": "1 38091U 12008A   25353.66911748  .00000079  00000+0  00000+0 0  9996", "line2": "2 38091   3.1258  70.6861 0012969 231.3522  86.1393  1.00268606 50560"}}, "geometry": {"type": "Point", "coordinates": [-156.64238902888914, 2.289898193271013]}}, {"type": "Feature", "properties": {"norad_id": 38250, "name": "BEIDOU-2 M3 (C11)", "group": "gnss", "lat": -22.41013221547032, "lon": 147.08443562466127, "alt_km": 21505.36000492283, "timestamp": "2025-12-20T03:42:47.635535+00:00", "meta": {"OBJECT_NAME": "BEIDOU-2 M3 (C11)", "OBJECT_ID": "2012-018A", "EPOCH": "2025-12-19T07:23:03.381792", "MEAN_MOTION": 1.86230015, "ECCENTRICITY": 0.0024195, "INCLINATION": 55.9145, "RA_OF_ASC_NODE": 310.9364, "ARG_OF_PERICENTER": 274.9131, "MEAN_ANOMALY": 84.7979, "EPHEMERIS_TYPE": 0, "CLASSIFICATION_TYPE": "U", "NORAD_CAT_ID": 38250, "ELEMENT_SET_NO": 999, "REV_AT_EPOCH": 9259, "BSTAR": 0, "MEAN_MOTION_DOT": -7.8e-07, "MEAN_MOTION_DDOT": 0}, "tle": {"line1": "1 38250U 12018A   25353.30767803 -.00000078  00000+0  00000+0 0  9996", "line2": "2 38250  55.9145 310.9364 0024195 274.9131  84.7979  1.86230015 92598"}}, "geometry": {"type": "Point", "coordinates": [147.08443562466127, -22.41013221547032]}}, {"type": "Feature", "properties": {"norad_id": 38251, "name": "BEIDOU-2 M4 (C12)", "group": "gnss", "lat": -52.37877354811717, "lon": -168.11238341185432, "alt_km": 21495.04342751273, "timestamp": "2025-12-20T03:42:47.635553+00:00", "meta": {"OBJECT_NAME": "BEIDOU-2 M4 (C12)", "OBJECT_ID": "2012-018B", "EPOCH": "2025-12-19T05:45:13.599936", "MEAN_MOTION": 1.86229684, "ECCENTRICITY": 0.00153935, "INCLINATION": 55.8157, "RA_OF_ASC_NODE": 310.167, "ARG_OF_PERICENTER": 278.4783, "MEAN_ANOMALY": 81.3347, "EPHEMERIS_TYPE": 0, "CLASSIFICATION_TYPE": "U", "NORAD_CAT_ID": 38251, "ELEMENT_SET_NO": 999, "REV_AT_EPOCH": 9259, "BSTAR": 0, "MEAN_MOTION_DOT": -7.8e-07, "MEAN_MOTION_DDOT": 0}, "tle": {"line1": "1 38251U 12018B   25353.23974074 -.00000078  00000+0  00000+0 0  9999", "line2": "2 38251  55.8157 310.1670 0015393 278.4783  81.3347  1.86229684 92597"}}, "geometry": {"type": "Point", "coordinates": [-168.11238341185432, -52.37877354811717]}}, {"type": "Feature", "properties": {"norad_id": 38652, "name": "SES-5 (EGNOS/PRN 136)", "group": "gnss", "lat": -0.013655617985364835, "lon": 149.63658484622985, "alt_km": 35789.6133088185, "timestamp": "2025-12-20T03:42:47.635565+00:00", "meta": {"OBJECT_NAME": "SES-5 (EGNOS/PRN 136)", "OBJECT_ID": "2012-036A", "EPOCH": "2025-12-19T13:17:17.428416", "MEAN_MOTION": 1.00271062, "ECCENTRICITY": 0.0001798, "INCLINATION": 0.056, "RA_OF_ASC_NODE": 306.3355, "ARG_OF_PERICENTER": 319.4841, "MEAN_ANOMALY": 26.8788, "EPHEMERIS_TYPE": 0, "CLASSIFICATION_TYPE": "U", "NORAD_CAT_ID": 38652, "ELEMENT_SET_NO": 999, "REV_AT_EPOCH": 4265, "BSTAR": 0, "MEAN_MOTION_DOT": 5.8e-07, "MEAN_MOTION_DDOT": 0}, "tle": {"line1": "1 38652U 12036A   25353.55367394  .00000058  00000+0  00000+0 0  9997", "line2": "2 38652   0.0560 306.3355 0001798 319.4841  26.8788  1.00271062 42652"}}, "geometry": {"type": "Point", "coordinates": [149.63658484622985, -0.013655617985364835]}}, {"type": "Feature", "properties": {"norad_id": 38775, "name": "BEIDOU-2 M6 (C14)", "group": "gnss", "lat": 56.31919615721055, "lon": 154.1345091866791, "alt_km": 21529.018759113038, "timestamp": "2025-12-20T03:42:47.635576+00:00", "meta": {"OBJECT_NAME": "BEIDOU-2 M6 (C14)", "OBJECT_ID": "2012-050B", "EPOCH": "2025-12-19T11:42:06.639840", "MEAN_MOTION": 1.86230927, "ECCENTRICITY": 0.0011333, "INCLINATION": 56.384, "RA_OF_ASC_NODE": 68.8435, "ARG_OF_PERICENTER": 343.6526, "MEAN_ANOMALY": 16.3469, "EPHEMERIS_TYPE": 0, "CLASSIFICATION_TYPE": "U", "NORAD_CAT_ID": 38775, "ELEMENT_SET_NO": 999, "REV_AT_EPOCH": 8996, "BSTAR": 0, "MEAN_MOTION_DOT": -5.2e-07, "MEAN_MOTION_DDOT": 0}, "tle": {"line1": "1 38775U 12050B   25353.48757685 -.00000052  00000+0  00000+0 0  9992", "line2": "2 38775  56.3840  68.8435 0011333 343.6526  16.3469  1.86230927 89961"}}, "geometry": {"type": "Point", "coordinates": [154.1345091866791, 56.31919615721055]}}]}